THURAYA-2               
1 27825U 03026A   23152.83179205  .00000142  00000+0  00000+0 0  9998
2 27825   7.1859  34.6039 0002400  21.2658 177.6071  1.00271662 73207
OPTUS C1                
1 27831U 03028B   23152.69385519 -.00000131  00000+0  00000+0 0  9997
2 27831   4.0789  82.5519 0006315 347.6229 225.2516  1.00270595 41916
GALAXY 23 (G-23)        
1 27854U 03034A   23152.71106963  .00000034  00000+0  00000+0 0  9997
2 27854   0.3222  95.0188 0002887 336.8498 313.0542  1.00272369 72595
USA 170                 
1 27875U 03040A   23152.15330947 -.00000257  00000+0  00000+0 0  9994
2 27875   8.1204  57.4262 0003968  38.2243 166.6682  1.00270561 20470
GALAXY 13 (HORIZONS-1)  
1 27954U 03044A   23152.49486659  .00000069  00000+0  00000+0 0  9995
2 27954   0.0174 323.5114 0002305 119.4988 217.8437  1.00271448 35423
YAMAL 202               
1 28089U 03053A   23152.74102148 -.00000059  00000+0  00000+0 0  9991
2 28089   3.5187  84.1361 0005529   5.0661 231.0289  1.00272163 71538
UFO 11 (USA 174)        
1 28117U 03057A   23153.02385981 -.00000089  00000+0  00000+0 0  9990
2 28117   7.4855  37.5833 0005242  41.1218 255.7519  1.00271653 71275
USA 176 (DSP 22)        
1 28158U 04004A   23152.90785439 -.00000205  00000+0  00000+0 0  9996
2 28158  10.5499  33.3050 0000392  17.1279 253.8692  1.00269747 21788
ABS-4 (MOBISAT-1)       
1 28184U 04007A   23152.67564730  .00000061  00000+0  00000+0 0  9990
2 28184   3.2092  85.2438 0005118 342.8746 125.9755  1.00269558 70434
EUTELSAT 7A             
1 28187U 04008A   23152.49242596  .00000125  00000+0  00000+0 0  9998
2 28187   2.9917  84.7859 0004432 339.9189 223.1054  1.00268781 70201
AMC-11 (GE-11)          
1 28252U 04017A   23152.51021652 -.00000028  00000+0  00000+0 0  9995
2 28252   0.0168 340.1696 0001233  79.4126 262.7361  1.00271107 69723
INTELSAT 10-02          
1 28358U 04022A   23152.23318834  .00000010  00000+0  00000+0 0  9998
2 28358   0.0453 111.8129 0001178 342.9938 237.6253  1.00273716 69479
ANIK F2                 
1 28378U 04027A   23152.51021652 -.00000028  00000+0  00000+0 0  9995
2 28378   0.4222  92.9740 0003056   0.0381 229.3011  1.00272322 30119
AMC-15                  
1 28446U 04041A   23152.51021652 -.00000067  00000+0  00000+0 0  9990
2 28446   0.0188 333.2962 0002663  91.8154 263.2479  1.00271225 68160
NSS-10 (AMC-12)         
1 28526U 05003A   23152.72771812 -.00000231  00000+0  00000+0 0  9994
2 28526   3.6550  83.5370 0003304 333.6355  57.3081  1.00271759 42011
XTAR-EUR                
1 28542U 05005A   23152.47528561  .00000172  00000+0  00000+0 0  9990
2 28542   1.4654  90.4708 0003708 358.1501   1.1921  1.00270213 67038
XM-3 (RHYTHM)           
1 28626U 05008A   23153.00497510 -.00000184  00000+0  00000+0 0  9999
2 28626   0.0433 142.9548 0000241 223.3448 160.5998  1.00272266 66929
INMARSAT 4-F1           
1 28628U 05009A   23153.03174456 -.00000242  00000+0  00000+0 0  9991
2 28628   3.8989  38.3405 0003004  36.6276 330.1952  1.00271620 66526
DIRECTV 8               
1 28659U 05019A   23152.49643556  .00000022  00000+0  00000+0 0  9992
2 28659   0.0158  28.3140 0002970  46.7644 234.3275  1.00270013 65925
GALAXY 28 (G-28)        
1 28702U 05022A   23152.50465920 -.00000164  00000+0  00000+0 0  9992
2 28702   0.4254  91.6309 0002063 320.3054 290.4561  1.00272137 40837
THAICOM 4               
1 28786U 05028A   23152.60109619 -.00000341  00000+0  00000+0 0  9998
2 28786   0.0013   6.9497 0002234  70.2009 148.5886  1.00269465 65173
GALAXY 14 (G-14)        
1 28790U 05030A   23152.74175164  .00000176  00000+0  00000+0 0  9994
2 28790   2.1503  88.3144 0001661 336.7093 124.8624  1.00271274 65161
ANIK F1R                
1 28868U 05036A   23152.51021652 -.00000053  00000+0  00000+0 0  9998
2 28868   1.4481  90.1202 0003161 353.3836 242.6175  1.00271887 35300
GALAXY 15 (G-15)        
1 28884U 05041A   23153.03791821  .00000059  00000+0  00000+0 0  9997
2 28884   0.6432  83.6744 0013463  95.7535 164.8907  0.98938306 64450
SYRACUSE 3A             
1 28885U 05041B   23153.03129368  .00000149  00000+0  00000+0 0  9999
2 28885   2.0083  89.1895 0002478 333.3912 245.9142  1.00272060 64590
INMARSAT 4-F2           
1 28899U 05044A   23152.67625747  .00000029  00000+0  00000+0 0  9995
2 28899   3.7964  40.2476 0002964  37.0708 119.9190  1.00272051 64374
SPACEWAY 2              
1 28903U 05046B   23152.49251312  .00000124  00000+0  00000+0 0  9992
2 28903   2.7079  84.7106 0000624 194.3042   9.1141  1.00271448 40197
METEOSAT-9 (MSG-2)      
1 28912U 05049B   23153.01709843  .00000145  00000+0  00000+0 0  9994
2 28912   6.8126  63.8779 0001916 169.4449  68.7563  1.00270015 63933
EUTELSAT 174A           
1 28924U 05052A   23152.81010419  .00000031  00000+0  00000+0 0  9996
2 28924   1.3889  89.7847 0006399 337.3340 288.5461  1.00271645 41183
ECHOSTAR 10             
1 28935U 06003A   23152.51021652 -.00000034  00000+0  00000+0 0  9997
2 28935   0.0213 310.3121 0002085  92.4895 280.4222  1.00271653 63327
SPAINSAT                
1 28945U 06007A   23152.38999102 -.00000195  00000+0  00000+0 0  9999
2 28945   0.0153 248.1055 0003401 198.8962 273.0532  1.00271154 63074
EUTELSAT HOTBIRD 13E    
1 28946U 06007B   23153.02449481  .00000108  00000+0  00000+0 0  9995
2 28946   0.0555 161.0803 0004494 301.8063 169.1824  1.00268961 63156
JCSAT-5A                
1 29045U 06010A   23152.89068487 -.00000307  00000+0  00000+0 0  9999
2 29045   0.0120   7.3851 0000106  13.1839 322.2539  1.00272285 62800
ASTRA 1KR               
1 29055U 06012A   23153.02571513  .00000142  00000+0  00000+0 0  9993
2 29055   0.0492 282.9611 0001255 195.7453 160.0125  1.00276528 62604
EWS-G1 (GOES 13)        
1 29155U 06018A   23152.67573448  .00000060  00000+0  00000+0 0  9998
2 29155   1.4924  91.8452 0002035  75.5284  27.0287  1.00271612 32230
EUTELSAT 113 WEST A     
1 29162U 06020A   23152.51021652 -.00000016  00000+0  00000+0 0  9999
2 29162   0.0117 119.4076 0002986 312.8930 248.1114  1.00272483 62321
GALAXY 16 (G-16)        
1 29236U 06023A   23153.00218583 -.00000106  00000+0  00000+0 0  9990
2 29236   0.0488 121.5454 0002843 307.0159  83.4353  1.00271930 62128
EUTELSAT HOTBIRD 13B    
1 29270U 06032A   23152.66614634  .00000108  00000+0  00000+0 0  9997
2 29270   0.0576   1.3146 0004567  59.2844  82.1129  1.00269853 36162
JCSAT-3A                
1 29272U 06033A   23152.53243716 -.00000324  00000+0  00000+0 0  9996
2 29272   0.0505 112.7510 0002071 311.6725 145.0234  1.00270261 36597
SYRACUSE 3B             
1 29273U 06033B   23152.66248542 -.00000022  00000+0  00000+0 0  9998
2 29273   0.0504 112.8481 0004697 319.4889  50.8339  1.00271883 61563
KOREASAT 5 (MUGUNGWHA 5)
1 29349U 06034A   23153.04445557 -.00000337  00000+0  00000+0 0  9990
2 29349   0.0419 120.0142 0001384 326.6203 292.6934  1.00270196 61492
DIRECTV 9S              
1 29494U 06043A   23152.51021652 -.00000092  00000+0  00000+0 0  9996
2 29494   0.0914 278.8227 0003077 154.7530 258.6441  1.00272369 40231
OPTUS D1                
1 29495U 06043B   23152.72896479 -.00000162  00000+0  00000+0 0  9995
2 29495   0.1603  92.3932 0003906 337.0870 234.9046  1.00270828 60973
XM-4 (BLUES)            
1 29520U 06049A   23152.41438296 -.00000235  00000+0  00000+0 0  9996
2 29520   0.0144 132.7513 0000233 343.3843 243.7043  1.00271304 60857
BADR-4                  
1 29526U 06051A   23152.66867413  .00000165  00000+0  00000+0 0  9990
2 29526   0.0368 339.3976 0003139  61.4641 115.7331  1.00271913 40123
WILDBLUE-1              
1 29643U 06054A   23152.51021652 -.00000028  00000+0  00000+0 0  9993
2 29643   0.0214 256.9503 0002070 157.9734 267.3126  1.00271211 42646
AMC-18                  
1 29644U 06054B   23152.50358307 -.00000195  00000+0  00000+0 0  9998
2 29644   0.0280  44.8289 0002423  23.4364 279.7610  1.00272719 60383
SKYNET 5A               
1 30794U 07007B   23152.91658579 -.00000251  00000+0  00000+0 0  9997
2 30794   2.4543  86.7835 0003524 349.3172 239.2259  1.00270856 59558
ANIK F3                 
1 31102U 07009A   23152.49652271  .00000020  00000+0  00000+0 0  9992
2 31102   0.0180 291.3558 0002132 143.1544 235.2587  1.00273093 35411
ASTRA 1L                
1 31306U 07016A   23153.02571513  .00000141  00000+0  00000+0 0  9999
2 31306   0.0652 309.8905 0003693  68.2936 260.5341  1.00268675 58893
GALAXY 17 (G-17)        
1 31307U 07016B   23153.00497510 -.00000185  00000+0  00000+0 0  9991
2 31307   0.1474  95.3525 0002169   2.7585  68.9202  1.00270982 58937
ZHONGXING-6B            
1 31800U 07031A   23153.04489140 -.00000340  00000+0  00000+0 0  9993
2 31800   0.0175 306.0077 0003425 115.6349 320.2456  1.00275356 58333
DIRECTV 10              
1 31862U 07032A   23152.51021652 -.00000082  00000+0  00000+0 0  9996
2 31862   0.0091 250.5061 0000158  80.2570 359.8538  1.00271429 34449
SPACEWAY 3              
1 32018U 07036A   23153.00305749 -.00000131  00000+0  00000+0 0  9996
2 32018   1.1142  89.5803 0000398 176.4888 250.3068  1.00271549 57982
BSAT-3A                 
1 32019U 07036B   23153.04349677 -.00000329  00000+0  00000+0 0  9998
2 32019   0.0449 196.7381 0001118 316.2076 222.8200  1.00270137 57925
OPTUS D2                
1 32252U 07044A   23153.12619042 -.00000090  00000+0  00000+0 0  9996
2 32252   0.0162 313.3901 0003522 122.7894  19.5952  1.00270658 57305
INTELSAT 11 (IS-11)     
1 32253U 07044B   23152.65498925 -.00000247  00000+0  00000+0 0  9993
2 32253   0.6792  92.3262 0003405 347.7776   2.5678  1.00272221 57342
WGS F1 (USA 195)        
1 32258U 07046A   23152.73643458  .00000062  00000+0  00000+0 0  9996
2 32258   0.0194 345.9049 0000527 107.5802  67.5926  1.00270801 41208
SKYNET 5B               
1 32294U 07056B   23152.74018267  .00000162  00000+0  00000+0 0  9993
2 32294   2.4121  86.1867 0003869 344.1507 111.1804  1.00271652 57055
